FLOCK 4BE-27            
1 60513U 24149AX  26196.75284512  .00005823  00000+0  17429-3 0  9996
2 60513  97.3827 278.6254 0004091 180.4022 179.7219 15.34924575106523
FLOCK 4BE-9             
1 60514U 24149AY  26196.78743728  .00012558  00000+0  30026-3 0  9990
2 60514  97.3792 281.3519 0003751 168.9855 191.1475 15.41617186106726
FLOCK 4BE-6             
1 60516U 24149BA  26196.77445888  .00009281  00000+0  23215-3 0  9998
2 60516  97.3789 280.6416 0004418 171.2292 188.9032 15.40327147106676
FLOCK 4BE-14            
1 60517U 24149BB  26196.79570183  .00011283  00000+0  26771-3 0  9993
2 60517  97.3694 280.8270 0005453 174.8160 185.3145 15.41868142106734
FLOCK 4BE-1             
1 60518U 24149BC  26196.78142402  .00012392  00000+0  27803-3 0  9991
2 60518  97.3780 282.1939 0005016 174.3404 185.7902 15.43525871106780
FLOCK 4BE-28            
1 60519U 24149BD  26196.81546579  .00027319  00000+0  55423-3 0  9993
2 60519  97.3749 283.0464 0005258 173.7319 186.3997 15.46326227106862
IPERDRONE.0             
1 60520U 24149BE  26196.81686289  .00062885  00000+0  49783-3 0  9997
2 60520  97.3773 291.5365 0004022 166.8233 193.3136 15.71139806107408
TRANSPORTER-11 OBJECT BF
1 60521U 24149BF  26196.80132246  .01016119  63981-3  97569-3 0  9992
2 60521  97.3807 295.4195 0010931 249.1592 110.8522 16.11780645107647
CONNECTA IOT-2          
1 60522U 24149BG  26196.73998623  .00002513  00000+0  10605-3 0  9991
2 60522  97.3836 274.4556 0005618 210.6026 149.4885 15.24197557106241
CONNECTA IOT-4          
1 60524U 24149BJ  26196.74772242  .00013274  00000+0  30100-3 0  9999
2 60524  97.3799 281.4758 0006044 173.3222 186.8107 15.43184698106739
ORESAT0.5               
1 60525U 24149BK  26196.73391617  .00013587  00000+0  27893-3 0  9994
2 60525  97.3728 283.1914 0006231 162.7489 197.3973 15.46122446106880
DEIMOS                  
1 60526U 24149BL  26196.78248918  .00013130  00000+0  27815-3 0  9993
2 60526  97.3782 283.3664 0006023 168.4372 191.7016 15.45207671106865
CUAVA-2                 
1 60527U 24149BM  26196.93471479  .00006965  00000+0  19619-3 0  9992
2 60527  97.3723 278.5143 0006906 176.9739 183.1549 15.36743933106581
ERNST                   
1 60528U 24149BN  26196.76773787  .00007718  00000+0  19609-3 0  9997
2 60528  97.3808 280.7152 0006227 177.1921 182.9361 15.39903757106677
TORO                    
1 60530U 24149BQ  26196.92497216  .00000498  00000+0  48792-4 0  9992
2 60530  97.6775 271.0565 0001136 100.7622 259.3728 14.96517369104251
HYPSO-2                 
1 60531U 24149BR  26196.43972395  .00001427  00000+0  12280-3 0  9990
2 60531  97.6841 272.2902 0001783  98.4846 261.6579 14.98934859104285
LEMU NGE                
1 60532U 24149BS  26196.16222054  .00001360  00000+0  12935-3 0  9994
2 60532  97.6837 270.5567 0000594  85.2508 274.8780 14.95060561104138
LEMUR-2-STELLA          
1 60533U 24149BT  26196.73536930  .00005975  00000+0  34817-3 0  9998
2 60533  97.6737 279.3258 0001241 118.9056 241.2299 15.12378243104811
SATELIOT_2              
1 60534U 24149BU  26196.17777105  .00000557  00000+0  54148-4 0  9999
2 60534  97.6824 270.6236 0001589  75.7302 284.4096 14.96459257104155
NIGHTJAR                
1 60535U 24149BV  26196.76056129  .00002224  00000+0  18754-3 0  9996
2 60535  97.6840 273.0666 0002667  95.1319 265.0208 14.99171980147154
LEMUR-2-MARHISYAM       
1 60536U 24149BW  26196.79268113  .00006358  00000+0  37630-3 0  9994
2 60536  97.6878 279.8606 0002353  68.7534 291.3947 15.11785796104809
SATELIOT_4              
1 60537U 24149BX  26196.51718979  .00000363  00000+0  36686-4 0  9996
2 60537  97.6731 270.4648 0001002 343.4061  16.7128 14.96759443104216
PICO-02A021             
1 60538U 24149BY  26196.18744497  .00001915  00000+0  14501-3 0  9999
2 60538  97.6742 274.7818 0003651 280.3621  79.7192 15.03488388103943
ICEYE-X43               
1 60539U 24149BZ  26196.78535385  .00000774  00000+0  67354-4 0  9997
2 60539  97.6799 273.3667 0006481 345.1881  14.9151 14.99787819104408
HAWK-10A                
1 60540U 24149CA  26196.78637661  .00000189  00000+0  21605-4 0  9998
2 60540  97.6890 272.2064 0003043   0.8178 359.3048 14.96592968104267
UMBRA-09                
1 60541U 24149CB  26196.79877919  .00011437  00000+0  55166-3 0  9998
2 60541  97.6974 284.5108 0002075 201.7624 158.3522 15.18864080105063
QPS-SAR-8 (AMATERU-IV)  
1 60542U 24149CC  26196.92980505  .00001914  00000+0  14151-3 0  9998
2 60542  97.6658 275.8425 0003644  42.4831 317.6676 15.04398420104593
ARCTIC WEATHER SATELLITE
1 60543U 24149CD  26196.90008264  .00000313  00000+0  38188-4 0  9999
2 60543  97.6791 266.5433 0002790  49.2667 310.8793 14.89804101103573
CAPELLA-15 (ACADIA-5)   
1 60544U 24149CE  26196.21437038  .00002389  00000+0  23867-3 0  9991
2 60544  97.6759 268.4148 0003244 341.5394  18.5707 14.92405560104031
HAWK-10B                
1 60545U 24149CF  26196.78624020  .00000194  00000+0  22052-4 0  9991
2 60545  97.6808 271.5325 0005395  12.3131 347.8222 14.96591844104260
